[{"OBJECT_NAME":"TEIKYOSAT-4 (OORURI)","OBJECT_ID":"2021-102B","EPOCH":"2026-03-09T16:12:29.535840","MEAN_MOTION":15.09119208,"ECCENTRICITY":0.00103447,"INCLINATION":97.3797,"RA_OF_ASC_NODE":101.9931,"ARG_OF_PERICENTER":276.5421,"MEAN_ANOMALY":83.463,"EPHEMERIS_TYPE":0,"CLASSIFICATION_TYPE":"U","NORAD_CAT_ID":49396,"ELEMENT_SET_NO":999,"REV_AT_EPOCH":23771,"BSTAR":0.00015739844,"MEAN_MOTION_DOT":2.438e-5,"MEAN_MOTION_DDOT":0},{"OBJECT_NAME":"STARLINK-3181","OBJECT_ID":"2022-010F","EPOCH":"2026-03-09T21:39:25.644960","MEAN_MOTION":15.08845307,"ECCENTRICITY":0.00014628,"INCLINATION":53.2173,"RA_OF_ASC_NODE":278.1667,"ARG_OF_PERICENTER":80.3897,"MEAN_ANOMALY":279.7261,"EPHEMERIS_TYPE":0,"CLASSIFICATION_TYPE":"U","NORAD_CAT_ID":51461,"ELEMENT_SET_NO":999,"REV_AT_EPOCH":22685,"BSTAR":0.00014559023,"MEAN_MOTION_DOT":2.03e-5,"MEAN_MOTION_DDOT":0}]
